[{"OBJECT_NAME":"OBJECT A","OBJECT_ID":"2022-023A","EPOCH":"2026-03-07T09:13:29.633664","MEAN_MOTION":15.18202647,"ECCENTRICITY":0.00985337,"INCLINATION":63.4765,"RA_OF_ASC_NODE":256.024,"ARG_OF_PERICENTER":341.4326,"MEAN_ANOMALY":18.3199,"EPHEMERIS_TYPE":0,"CLASSIFICATION_TYPE":"U","NORAD_CAT_ID":51946,"ELEMENT_SET_NO":999,"REV_AT_EPOCH":22226,"BSTAR":0.00019500419,"MEAN_MOTION_DOT":4.303e-5,"MEAN_MOTION_DDOT":0},{"OBJECT_NAME":"STARLINK-34717","OBJECT_ID":"2025-165E","EPOCH":"2026-03-09T18:13:22.141056","MEAN_MOTION":15.05644459,"ECCENTRICITY":1.753e-5,"INCLINATION":97.603,"RA_OF_ASC_NODE":147.34,"ARG_OF_PERICENTER":167.0938,"MEAN_ANOMALY":193.0294,"EPHEMERIS_TYPE":0,"CLASSIFICATION_TYPE":"U","NORAD_CAT_ID":65060,"ELEMENT_SET_NO":999,"REV_AT_EPOCH":3480,"BSTAR":3.4347006e-5,"MEAN_MOTION_DOT":4.35e-6,"MEAN_MOTION_DDOT":0}]
